[
    {
        "Altitude(m)": 712677.643438271,
        "Argument of Periapsis(deg)": 0.0,
        "Eccentricity": 0.0,
        "Inclination(deg)": 45.0,
        "Latitude(deg)": -32.47992233841144,
        "Longitude(deg)": 155.74684880949786,
        "Mean Anomaly(deg)": -49.09089999999989,
        "RAAN(deg)": 295.00000000000006,
        "Satellite Name": "Constellation 1 1317",
        "Satellite Number": 1317,
        "Semi-Major Axis(m)": 7083131.272910544,
        "Time(s)": 0
    },
    {
        "Altitude(m)": 712664.3755505389,
        "Argument of Periapsis(deg)": 5.994800624540561e-05,
        "Eccentricity": 0.0,
        "Inclination(deg)": 45.0,
        "Latitude(deg)": -32.44661631741467,
        "Longitude(deg)": 155.802709408456,
        "Mean Anomaly(deg)": -49.03019885975006,
        "RAAN(deg)": 294.9999434108345,
        "Satellite Name": "Constellation 1 1317",
        "Satellite Number": 1317,
        "Semi-Major Axis(m)": 7083131.272910544,
        "Time(s)": 1
    },
    {
        "Altitude(m)": 712651.100194556,
        "Argument of Periapsis(deg)": 0.00011989601249081122,
        "Eccentricity": 0.0,
        "Inclination(deg)": 45.0,
        "Latitude(deg)": -32.41328152535196,
        "Longitude(deg)": 155.85852604298358,
        "Mean Anomaly(deg)": -48.969497719500175,
        "RAAN(deg)": 294.9998868216689,
        "Satellite Name": "Constellation 1 1317",
        "Satellite Number": 1317,
        "Semi-Major Axis(m)": 7083131.272910544,
        "Time(s)": 2
    },
    {
        "Altitude(m)": 712637.8174174341,
        "Argument of Periapsis(deg)": 0.00017984401873621686,
        "Eccentricity": 0.0,
        "Inclination(deg)": 45.0,
        "Latitude(deg)": -32.379918019138145,
        "Longitude(deg)": 155.91429876421446,
        "Mean Anomaly(deg)": -48.908796579250186,
        "RAAN(deg)": 294.9998302325033,
        "Satellite Name": "Constellation 1 1317",
        "Satellite Number": 1317,
        "Semi-Major Axis(m)": 7083131.272910544,
        "Time(s)": 3
    },
    {
        "Altitude(m)": 712624.527266316,
        "Argument of Periapsis(deg)": 0.00023979202498162244,
        "Eccentricity": 0.0,
        "Inclination(deg)": 45.0,
        "Latitude(deg)": -32.34652585561694,
        "Longitude(deg)": 155.97002762339596,
        "Mean Anomaly(deg)": -48.84809543900035,
        "RAAN(deg)": 294.99977364333773,
        "Satellite Name": "Constellation 1 1317",
        "Satellite Number": 1317,
        "Semi-Major Axis(m)": 7083131.272910544,
        "Time(s)": 4
    },
    {
        "Altitude(m)": 712611.2297883627,
        "Argument of Periapsis(deg)": 0.00029974003122702807,
        "Eccentricity": 0.0,
        "Inclination(deg)": 45.0,
        "Latitude(deg)": -32.31310509156049,
        "Longitude(deg)": 156.02571267188833,
        "Mean Anomaly(deg)": -48.787394298750506,
        "RAAN(deg)": 294.9997170541722,
        "Satellite Name": "Constellation 1 1317",
        "Satellite Number": 1317,
        "Semi-Major Axis(m)": 7083131.272910544,
        "Time(s)": 5
    },
    {
        "Altitude(m)": 712597.9250307465,
        "Argument of Periapsis(deg)": 0.00035968803747243373,
        "Eccentricity": 0.0,
        "Inclination(deg)": 45.0,
        "Latitude(deg)": -32.2796557836695,
        "Longitude(deg)": 156.081353961164,
        "Mean Anomaly(deg)": -48.726693158500524,
        "RAAN(deg)": 294.9996604650066,
        "Satellite Name": "Constellation 1 1317",
        "Satellite Number": 1317,
        "Semi-Major Axis(m)": 7083131.272910544,
        "Time(s)": 6
    },
    {
        "Altitude(m)": 712584.6130406726,
        "Argument of Periapsis(deg)": 0.00041963604371783933,
        "Eccentricity": 0.0,
        "Inclination(deg)": 45.0,
        "Latitude(deg)": -32.24617798857311,
        "Longitude(deg)": 156.136951374709,
        "Mean Anomaly(deg)": -48.665992018250584,
        "RAAN(deg)": 294.99960387584105,
        "Satellite Name": "Constellation 1 1317",
        "Satellite Number": 1317,
        "Semi-Major Axis(m)": 7083131.272910544,
        "Time(s)": 7
    },
    {
        "Altitude(m)": 712571.2938653451,
        "Argument of Periapsis(deg)": 0.0004795840499632449,
        "Eccentricity": 0.0,
        "Inclination(deg)": 45.0,
        "Latitude(deg)": -32.2126717628298,
        "Longitude(deg)": 156.19250530041035,
        "Mean Anomaly(deg)": -48.6052908780008,
        "RAAN(deg)": 294.99954728667547,
        "Satellite Name": "Constellation 1 1317",
        "Satellite Number": 1317,
        "Semi-Major Axis(m)": 7083131.272910544,
        "Time(s)": 8
    },
    {
        "Altitude(m)": 712557.9675520028,
        "Argument of Periapsis(deg)": 0.0005395320562086505,
        "Eccentricity": 0.0,
        "Inclination(deg)": 45.0,
        "Latitude(deg)": -32.17913716292546,
        "Longitude(deg)": 156.24801562197393,
        "Mean Anomaly(deg)": -48.54458973775087,
        "RAAN(deg)": 294.9994906975099,
        "Satellite Name": "Constellation 1 1317",
        "Satellite Number": 1317,
        "Semi-Major Axis(m)": 7083131.272910544,
        "Time(s)": 9
    },
    {
        "Altitude(m)": 712544.6341478945,
        "Argument of Periapsis(deg)": 0.0005994800624540561,
        "Eccentricity": 0.0,
        "Inclination(deg)": 45.0,
        "Latitude(deg)": -32.145574245274965,
        "Longitude(deg)": 156.30348239131018,
        "Mean Anomaly(deg)": -48.48388859750098,
        "RAAN(deg)": 294.99943410834436,
        "Satellite Name": "Constellation 1 1317",
        "Satellite Number": 1317,
        "Semi-Major Axis(m)": 7083131.272910544,
        "Time(s)": 10
    },
    {
        "Altitude(m)": 712531.2937002875,
        "Argument of Periapsis(deg)": 0.0006594280686994618,
        "Eccentricity": 0.0,
        "Inclination(deg)": 45.0,
        "Latitude(deg)": -32.11198306622137,
        "Longitude(deg)": 156.35890566043753,
        "Mean Anomaly(deg)": -48.423187457251046,
        "RAAN(deg)": 294.9993775191787,
        "Satellite Name": "Constellation 1 1317",
        "Satellite Number": 1317,
        "Semi-Major Axis(m)": 7083131.272910544,
        "Time(s)": 11
    },
    {
        "Altitude(m)": 712517.946256471,
        "Argument of Periapsis(deg)": 0.0007193760749448675,
        "Eccentricity": 0.0,
        "Inclination(deg)": 45.0,
        "Latitude(deg)": -32.07836368203626,
        "Longitude(deg)": 156.4142854814803,
        "Mean Anomaly(deg)": -48.3624863170012,
        "RAAN(deg)": 294.9993209300132,
        "Satellite Name": "Constellation 1 1317",
        "Satellite Number": 1317,
        "Semi-Major Axis(m)": 7083131.272910544,
        "Time(s)": 12
    },
    {
        "Altitude(m)": 712504.5918637451,
        "Argument of Periapsis(deg)": 0.000779324081190273,
        "Eccentricity": 0.0,
        "Inclination(deg)": 45.0,
        "Latitude(deg)": -32.044716148919406,
        "Longitude(deg)": 156.46962190666906,
        "Mean Anomaly(deg)": -48.30178517675122,
        "RAAN(deg)": 294.9992643408476,
        "Satellite Name": "Constellation 1 1317",
        "Satellite Number": 1317,
        "Semi-Major Axis(m)": 7083131.272910544,
        "Time(s)": 13
    },
    {
        "Altitude(m)": 712491.2305694285,
        "Argument of Periapsis(deg)": 0.0008392720874356787,
        "Eccentricity": 0.0,
        "Inclination(deg)": 45.0,
        "Latitude(deg)": -32.01104052299904,
        "Longitude(deg)": 156.52491498833848,
        "Mean Anomaly(deg)": -48.241084036501434,
        "RAAN(deg)": 294.99920775168204,
        "Satellite Name": "Constellation 1 1317",
        "Satellite Number": 1317,
        "Semi-Major Axis(m)": 7083131.272910544,
        "Time(s)": 14
    },
    {
        "Altitude(m)": 712477.8624208658,
        "Argument of Periapsis(deg)": 0.0008992200936810842,
        "Eccentricity": 0.0,
        "Inclination(deg)": 45.0,
        "Latitude(deg)": -31.977336860331114,
        "Longitude(deg)": 156.58016461083093,
        "Mean Anomaly(deg)": -48.180382896251494,
        "RAAN(deg)": 294.9991511625165,
        "Satellite Name": "Constellation 1 1317",
        "Satellite Number": 1317,
        "Semi-Major Axis(m)": 7083131.272910544,
        "Time(s)": 15
    },
    {
        "Altitude(m)": 712464.4874654086,
        "Argument of Periapsis(deg)": 0.0009591680999264898,
        "Eccentricity": 0.0,
        "Inclination(deg)": 45.0,
        "Latitude(deg)": -31.94360521690085,
        "Longitude(deg)": 156.6353711628819,
        "Mean Anomaly(deg)": -48.11968175600156,
        "RAAN(deg)": 294.9990945733509,
        "Satellite Name": "Constellation 1 1317",
        "Satellite Number": 1317,
        "Semi-Major Axis(m)": 7083131.272910544,
        "Time(s)": 16
    },
    {
        "Altitude(m)": 712451.1057504297,
        "Argument of Periapsis(deg)": 0.0010191161061718953,
        "Eccentricity": 0.0,
        "Inclination(deg)": 45.0,
        "Latitude(deg)": -31.90984564862091,
        "Longitude(deg)": 156.69053452903844,
        "Mean Anomaly(deg)": -48.05898061575167,
        "RAAN(deg)": 294.99903798418535,
        "Satellite Name": "Constellation 1 1317",
        "Satellite Number": 1317,
        "Semi-Major Axis(m)": 7083131.272910544,
        "Time(s)": 17
    },
    {
        "Altitude(m)": 712437.717323311,
        "Argument of Periapsis(deg)": 0.001079064112417301,
        "Eccentricity": 0.0,
        "Inclination(deg)": 45.0,
        "Latitude(deg)": -31.87605821133218,
        "Longitude(deg)": 156.7456547620457,
        "Mean Anomaly(deg)": -47.99827947550184,
        "RAAN(deg)": 294.99898139501977,
        "Satellite Name": "Constellation 1 1317",
        "Satellite Number": 1317,
        "Semi-Major Axis(m)": 7083131.272910544,
        "Time(s)": 18
    }
]